[
    {
        "street": "Webergasse",
        "house_number": "1",
        "zip": "01067",
        "city": "Dresden\n"
    },
    {
        "street": "Prager Str.  ",
        "house_number": "8",
        "zip": "01069",
        "city": "Dresden\n"
    },
    {
        "street": "Kohlenstr.  ",
        "house_number": "18",
        "zip": "01189",
        "city": "Dresden\n"
    },
    {
        "street": "Dohnaer Str.",
        "house_number": "246",
        "zip": "01239",
        "city": "Dresden\n"
    },
    {
        "street": "Hauptstr.",
        "house_number": "46",
        "zip": "01589",
        "city": "Riesa\n"
    },
    {
        "street": "St\u00e4dtelner Str.",
        "house_number": "54",
        "zip": "04416",
        "city": "Markkleeberg\n"
    },
    {
        "street": "Niedermarkt",
        "house_number": "30",
        "zip": "04720",
        "city": "D\u00f6beln\n"
    },
    {
        "street": "Friedrichplatz",
        "house_number": "14",
        "zip": "04860",
        "city": "Torgau\n"
    },
    {
        "street": "Ratsgasse",
        "house_number": "6",
        "zip": "06844",
        "city": "Dessau-Ro\u00dflau\n"
    },
    {
        "street": "Innere Plauensche Str.",
        "house_number": "14",
        "zip": "08056",
        "city": "Zwickau\n"
    },
    {
        "street": "\u00c4u\u00dfere Plauensche Str.",
        "house_number": "26",
        "zip": "08056",
        "city": "Zwickau\n"
    },
    {
        "street": "Schubertstr.",
        "house_number": "3",
        "zip": "08058",
        "city": "Zwickau\n"
    },
    {
        "street": "\u00c4u\u00dfere Reichenbacher Str.",
        "house_number": "64",
        "zip": "08529",
        "city": "Plauen\n"
    },
    {
        "street": "Weinbergsweg",
        "house_number": "1",
        "zip": "10119",
        "city": "Berlin\n"
    },
    {
        "street": "Sewanstr.",
        "house_number": "4",
        "zip": "10319",
        "city": "Berlin\n"
    },
    {
        "street": "Wilmersdorfer Str.",
        "house_number": "64",
        "zip": "10627",
        "city": "Berlin\n"
    },
    {
        "street": "Wilmersdorfer Str.",
        "house_number": "46",
        "zip": "10627",
        "city": "Berlin\n"
    },
    {
        "street": "Kurf\u00fcrstendamm",
        "house_number": "71",
        "zip": "10709",
        "city": "Berlin\n"
    },
    {
        "street": "Joachimstaler Str.",
        "house_number": "21",
        "zip": "10719",
        "city": "Berlin\n"
    },
    {
        "street": "Rankestr.",
        "house_number": "34",
        "zip": "10789",
        "city": "Berlin\n"
    },
    {
        "street": "Tempelhofer Damm",
        "house_number": "126",
        "zip": "12099",
        "city": "Berlin\n"
    },
    {
        "street": "Gro\u00dfbeerenstr.",
        "house_number": "2",
        "zip": "12107",
        "city": "Berlin\n"
    },
    {
        "street": "Baumschulenstr.",
        "house_number": "90",
        "zip": "12437",
        "city": "Berlin\n"
    },
    {
        "street": "Helene-Weigel-Platz",
        "house_number": "11",
        "zip": "12681",
        "city": "Berlin\n"
    },
    {
        "street": "Am Prerowerplatz ",
        "house_number": "4",
        "zip": "13051",
        "city": "Berlin\n"
    },
    {
        "street": "Landsberger Allee",
        "house_number": "277",
        "zip": "13055",
        "city": "Berlin\n"
    },
    {
        "street": "D\u00f6beritzer Weg",
        "house_number": "3",
        "zip": "14624",
        "city": "Dallgow-D\u00f6beritz\n"
    },
    {
        "street": "Spitzkrugring",
        "house_number": "1",
        "zip": "15234",
        "city": "Frankfurt\n"
    },
    {
        "street": "Landgrabenpark",
        "house_number": "1",
        "zip": "16303",
        "city": "Schwedt\n"
    },
    {
        "street": "Ostsee-Park-Str.",
        "house_number": "3",
        "zip": "18069",
        "city": "Lambrechtshagen\n"
    },
    {
        "street": "Hansestr.",
        "house_number": "37",
        "zip": "18182",
        "city": "Bentwisch\n"
    },
    {
        "street": "Grabenstr.",
        "house_number": "1",
        "zip": "19061",
        "city": "Schwerin\n"
    },
    {
        "street": "Reichenstr. ",
        "house_number": "1213",
        "zip": "19258",
        "city": "Boizenburg\n"
    },
    {
        "street": "Gerhart-Hauptmann-Platz ",
        "house_number": "4648",
        "zip": "20095",
        "city": "Hamburg\n"
    },
    {
        "street": "Heu\u00dfweg",
        "house_number": "37",
        "zip": "20255",
        "city": "Hamburg\n"
    },
    {
        "street": "L\u00fcneburger Str.",
        "house_number": "45",
        "zip": "21073",
        "city": "Hamburg\n"
    },
    {
        "street": "Hannoversche Str.",
        "house_number": "86",
        "zip": "21079",
        "city": "Hamburg\n"
    },
    {
        "street": "Holzstr.",
        "house_number": "14",
        "zip": "21682",
        "city": "Stade\n"
    },
    {
        "street": "Wandsbeker Marktstr.",
        "house_number": "73",
        "zip": "22041",
        "city": "Hamburg\n"
    },
    {
        "street": "Hamburger Str. ",
        "house_number": "3337",
        "zip": "22083",
        "city": "Hamburg\n"
    },
    {
        "street": "Hamburger Str.",
        "house_number": "47",
        "zip": "22083",
        "city": "Hamburg\n"
    },
    {
        "street": "Billstedter Platz",
        "house_number": "9",
        "zip": "22111",
        "city": "Hamburg\n"
    },
    {
        "street": "Willinghusener Weg",
        "house_number": "1",
        "zip": "22113",
        "city": "Oststeinbek\n"
    },
    {
        "street": "Rahlstedter Bahnhofstr.",
        "house_number": "20",
        "zip": "22143",
        "city": "Hamburg\n"
    },
    {
        "street": "Langenhorner Markt ",
        "house_number": "9",
        "zip": "22415",
        "city": "Hamburg\n"
    },
    {
        "street": "Herrenholz",
        "house_number": "14",
        "zip": "23556",
        "city": "L\u00fcbeck\n"
    },
    {
        "street": "Konrad-Adenauer-Str.",
        "house_number": "1",
        "zip": "23558",
        "city": "L\u00fcbeck\n"
    },
    {
        "street": "Gro\u00dfflecken",
        "house_number": "30",
        "zip": "24534",
        "city": "Neum\u00fcnster\n"
    },
    {
        "street": "Langberger Weg",
        "house_number": "4",
        "zip": "24941",
        "city": "Flensburg\n"
    },
    {
        "street": "Schleswiger Str.",
        "house_number": "130",
        "zip": "24941",
        "city": "Flensburg\n"
    },
    {
        "street": "Gro\u00dfer Sand",
        "house_number": "12",
        "zip": "25436",
        "city": "Uetersen\n"
    },
    {
        "street": "Posthalterwe",
        "house_number": "",
        "zip": "26129",
        "city": "Oldenburg\n"
    },
    {
        "street": "Am Markt ",
        "house_number": "1517",
        "zip": "26427",
        "city": "Esens\n"
    },
    {
        "street": "Fischteichweg ",
        "house_number": "1519",
        "zip": "26603",
        "city": "Aurich\n"
    },
    {
        "street": "Albert-Post-Platz",
        "house_number": "21",
        "zip": "26655",
        "city": "Westerstede\n"
    },
    {
        "street": "Poststr. ",
        "house_number": "15",
        "zip": "26897",
        "city": "Esterwegen\n"
    },
    {
        "street": "Verdener Str.",
        "house_number": "5",
        "zip": "27356",
        "city": "Rotenburg\n"
    },
    {
        "street": "Lange Str.",
        "house_number": "108",
        "zip": "27749",
        "city": "Delmenhorst\n"
    },
    {
        "street": "Stedinger Str.",
        "house_number": "101",
        "zip": "27753",
        "city": "Delmenhorst\n"
    },
    {
        "street": "Duckwitzstr.",
        "house_number": "55",
        "zip": "28199",
        "city": "Bremen\n"
    },
    {
        "street": "Pfalzburger Str.",
        "house_number": "41",
        "zip": "28207",
        "city": "Bremen\n"
    },
    {
        "street": "Alter Dorfweg ",
        "house_number": "3050",
        "zip": "28259",
        "city": "Bremen\n"
    },
    {
        "street": "Hans-Bredow-Str.",
        "house_number": "19",
        "zip": "28307",
        "city": "Bremen\n"
    },
    {
        "street": "Veer\u00dfer Str.",
        "house_number": "59",
        "zip": "29525",
        "city": "Uelzen\n"
    },
    {
        "street": "Georgstr.",
        "house_number": "16",
        "zip": "30159",
        "city": "Hannover\n"
    },
    {
        "street": "Theaterstr.",
        "house_number": "14",
        "zip": "30159",
        "city": "Hannover\n"
    },
    {
        "street": "An der Weide ",
        "house_number": "2325",
        "zip": "30173",
        "city": "Hannover\n"
    },
    {
        "street": "Opelstr. ",
        "house_number": "35",
        "zip": "30916",
        "city": "Isernhagen\n"
    },
    {
        "street": "Konrad-Adenauer-Str.",
        "house_number": "33",
        "zip": "31737",
        "city": "Rinteln\n"
    },
    {
        "street": "Pferdemarkt",
        "house_number": "1",
        "zip": "31785",
        "city": "Hameln\n"
    },
    {
        "street": "Husener Str.",
        "house_number": "48",
        "zip": "33098",
        "city": "Paderborn\n"
    },
    {
        "street": "Pohlweg",
        "house_number": "110",
        "zip": "33100",
        "city": "Paderborn\n"
    },
    {
        "street": "Alter Hellweg",
        "house_number": "29",
        "zip": "33106",
        "city": "Paderborn\n"
    },
    {
        "street": "Geseker Str.",
        "house_number": "10",
        "zip": "33154",
        "city": "Salzkotten\n"
    },
    {
        "street": "Am Wallgraben",
        "house_number": "14",
        "zip": "33154",
        "city": "Salzkotten\n"
    },
    {
        "street": "Bahnhofstr.",
        "house_number": "8",
        "zip": "33415",
        "city": "Verl\n"
    },
    {
        "street": "Niedernstr.",
        "house_number": "37",
        "zip": "33602",
        "city": "Bielefeld\n"
    },
    {
        "street": "Elbeallee",
        "house_number": "79",
        "zip": "33689",
        "city": "Bielefeld\n"
    },
    {
        "street": "Oldentruper Str.",
        "house_number": "236",
        "zip": "33719",
        "city": "Bielefeld\n"
    },
    {
        "street": "M\u00fchlenstr.",
        "house_number": "2",
        "zip": "33803",
        "city": "Steinhagen\n"
    },
    {
        "street": "Obere K\u00f6nigsstr.",
        "house_number": "21",
        "zip": "34117",
        "city": "Kassel\n"
    },
    {
        "street": "Landgraf-Karl-Str.",
        "house_number": "1",
        "zip": "34131",
        "city": "Kassel\n"
    },
    {
        "street": "Frankfurter Str.",
        "house_number": "225",
        "zip": "34134",
        "city": "Kassel\n"
    },
    {
        "street": "Fuldastr.",
        "house_number": "1",
        "zip": "34225",
        "city": "Baunatal\n"
    },
    {
        "street": "Heinrich-Nordhoff-Str.",
        "house_number": "7",
        "zip": "34225",
        "city": "Baunatal\n"
    },
    {
        "street": "Lange Wender",
        "house_number": "7",
        "zip": "34246",
        "city": "Vellmar\n"
    },
    {
        "street": "Hauptstra\u00dfe",
        "house_number": "30",
        "zip": "34431",
        "city": "Marsberg\n"
    },
    {
        "street": "Kasseler Str.  ",
        "house_number": "22",
        "zip": "34560",
        "city": "Fritzlar\n"
    },
    {
        "street": "Am Forum",
        "house_number": "1",
        "zip": "35576",
        "city": "Wetzlar\n"
    },
    {
        "street": "Schlitzer Str.",
        "house_number": "87",
        "zip": "36039",
        "city": "Fulda\n"
    },
    {
        "street": "Keltenstr.",
        "house_number": "20",
        "zip": "36043",
        "city": "Fulda\n"
    },
    {
        "street": "Justus-Liebig-Str.",
        "house_number": "1",
        "zip": "36100",
        "city": "Petersberg\n"
    },
    {
        "street": "Theaterstr. ",
        "house_number": "17",
        "zip": "37073",
        "city": "G\u00f6ttingen\n"
    },
    {
        "street": "Hutfiltern",
        "house_number": "6",
        "zip": "38100",
        "city": "Braunschweig\n"
    },
    {
        "street": "Platz am Ritterbrunnen",
        "house_number": "1",
        "zip": "38100",
        "city": "Braunschweig\n"
    },
    {
        "street": "BraWo-Allee",
        "house_number": "1",
        "zip": "38102",
        "city": "Braunschweig\n"
    },
    {
        "street": "Elbestr.",
        "house_number": "25",
        "zip": "38120",
        "city": "Braunschweig\n"
    },
    {
        "street": "Am Pfingstanger",
        "house_number": "7",
        "zip": "38259",
        "city": "Salzgitter\n"
    },
    {
        "street": "Schweigerstr.",
        "house_number": "9",
        "zip": "38302",
        "city": "Wolfenb\u00fcttel\n"
    },
    {
        "street": "Porschestra\u00dfe  ",
        "house_number": "41",
        "zip": "38440",
        "city": "Wolfsburg\n"
    },
    {
        "street": "Rudolf-Diesel-Str.",
        "house_number": "44",
        "zip": "38820",
        "city": "Halberstadt\n"
    },
    {
        "street": "Platz des Friedens",
        "house_number": "1",
        "zip": "38855",
        "city": "Wernigerode\n"
    },
    {
        "street": "Ernst-Reuter-Allee",
        "house_number": "11",
        "zip": "39104",
        "city": "Magdeburg\n"
    },
    {
        "street": "Konrad-Adenauer-Platz",
        "house_number": "14",
        "zip": "40210",
        "city": "D\u00fcsseldorf\n"
    },
    {
        "street": "Graf-Adolf-Str.",
        "house_number": "35",
        "zip": "40210",
        "city": "D\u00fcsseldorf\n"
    },
    {
        "street": "Flinger Str.",
        "house_number": "3",
        "zip": "40213",
        "city": "D\u00fcsseldorf\n"
    },
    {
        "street": "Suitbertusstr.",
        "house_number": "137",
        "zip": "40223",
        "city": "D\u00fcsseldorf\n"
    },
    {
        "street": "Altenbr\u00fcckstr.",
        "house_number": "17",
        "zip": "40599",
        "city": "D\u00fcsseldorf\n"
    },
    {
        "street": "Mittelstr.",
        "house_number": "67",
        "zip": "40721",
        "city": "Hilden\n"
    },
    {
        "street": "Talstr. ",
        "house_number": "46",
        "zip": "40822",
        "city": "Mettmann\n"
    },
    {
        "street": "Jubil\u00e4umsplatz",
        "house_number": "3",
        "zip": "40822",
        "city": "Mettmann\n"
    },
    {
        "street": "Eisenh\u00fcttenstr.",
        "house_number": "2",
        "zip": "40882",
        "city": "Ratingen\n"
    },
    {
        "street": "Bismarckstr.",
        "house_number": "34",
        "zip": "41061",
        "city": "M\u00f6nchengladbach\n"
    },
    {
        "street": "Quadtstr.",
        "house_number": "20",
        "zip": "41189",
        "city": "M\u00f6nchengladbach\n"
    },
    {
        "street": "Schellbergstr.",
        "house_number": "9",
        "zip": "41469",
        "city": "Neuss\n"
    },
    {
        "street": "Kanalstr. ",
        "house_number": "5155",
        "zip": "41748",
        "city": "Viersen\n"
    },
    {
        "street": "Hofaue",
        "house_number": "95",
        "zip": "42103",
        "city": "Wuppertal\n"
    },
    {
        "street": "Wall",
        "house_number": "1",
        "zip": "42103",
        "city": "Wuppertal\n"
    },
    {
        "street": "Ascheweg",
        "house_number": "16",
        "zip": "42369",
        "city": "Wuppertal\n"
    },
    {
        "street": "Bornstr.",
        "house_number": "160",
        "zip": "44145",
        "city": "Dortmund\n"
    },
    {
        "street": "Wulfshofstr. ",
        "house_number": "68",
        "zip": "44149",
        "city": "Dortmund\n"
    },
    {
        "street": "Brackeler Hellweg",
        "house_number": "138",
        "zip": "44309",
        "city": "Dortmund\n"
    },
    {
        "street": "Deutsche Str.",
        "house_number": "7",
        "zip": "44339",
        "city": "Dortmund\n"
    },
    {
        "street": "Deutsche Str.",
        "house_number": "4",
        "zip": "44339",
        "city": "Dortmund\n"
    },
    {
        "street": "Siemensstr.",
        "house_number": "10",
        "zip": "44579",
        "city": "Castrop-Rauxel\n"
    },
    {
        "street": "Frielinghausstr.",
        "house_number": "8",
        "zip": "44803",
        "city": "Bochum\n"
    },
    {
        "street": "Riemker Str.",
        "house_number": "13",
        "zip": "44809",
        "city": "Bochum\n"
    },
    {
        "street": "\u00dcckendorfer Str.",
        "house_number": "49",
        "zip": "45327",
        "city": "Essen\n"
    },
    {
        "street": "Hans-B\u00f6ckler-Platz",
        "house_number": "10",
        "zip": "45468",
        "city": "M\u00fclheim\n"
    },
    {
        "street": "Reschop Carre Platz",
        "house_number": "1",
        "zip": "45525",
        "city": "Hattingen\n"
    },
    {
        "street": "Westfalenstr.",
        "house_number": "145",
        "zip": "45661",
        "city": "Recklinghausen\n"
    },
    {
        "street": "Berliner Platz",
        "house_number": "14",
        "zip": "45739",
        "city": "Oer-Erkenschwick\n"
    },
    {
        "street": "Brassertstr.",
        "house_number": "109",
        "zip": "45768",
        "city": "Marl\n"
    },
    {
        "street": "Finkenstr. ",
        "house_number": "6163",
        "zip": "45772",
        "city": "Marl\n"
    },
    {
        "street": "Ulrichstr.",
        "house_number": "10",
        "zip": "45891",
        "city": "Gelsenkirchen\n"
    },
    {
        "street": "Cranger Str.",
        "house_number": "278",
        "zip": "45891",
        "city": "Gelsenkirchen\n"
    },
    {
        "street": "S\u00fcdring-Center-Promenade",
        "house_number": "1",
        "zip": "46242",
        "city": "Bottrop\n"
    },
    {
        "street": "Hauptstr.",
        "house_number": "34",
        "zip": "46244",
        "city": "Bottrop\n"
    },
    {
        "street": "Moerser Str. ",
        "house_number": "238240",
        "zip": "47198",
        "city": "Duisburg\n"
    },
    {
        "street": "Asterlager Str.",
        "house_number": "90",
        "zip": "47228",
        "city": "Duisburg\n"
    },
    {
        "street": "Moerser Str.",
        "house_number": "290",
        "zip": "47475",
        "city": "Kamp-Lintfort\n"
    },
    {
        "street": "R\u00f6merstr. ",
        "house_number": "1618",
        "zip": "47495",
        "city": "Rheinberg\n"
    },
    {
        "street": "Steinstr.",
        "house_number": "18",
        "zip": "47574",
        "city": "Goch\n"
    },
    {
        "street": "Vo\u00dfstr. ",
        "house_number": "5759",
        "zip": "47574",
        "city": "Goch\n"
    },
    {
        "street": "Osnabr\u00fccker Str.",
        "house_number": "250",
        "zip": "48429",
        "city": "Rheine\n"
    },
    {
        "street": "Bonifatiusstr.",
        "house_number": "61",
        "zip": "48429",
        "city": "Rheine\n"
    },
    {
        "street": "Pagenstecherstr.",
        "house_number": "133",
        "zip": "49090",
        "city": "Osnabr\u00fcck\n"
    },
    {
        "street": "Schulstr.",
        "house_number": "1",
        "zip": "49170",
        "city": "Hagen\n"
    },
    {
        "street": "Frankfurter Str.",
        "house_number": "29",
        "zip": "49214",
        "city": "Bad Rothenfelde\n"
    },
    {
        "street": "Schullendamm",
        "house_number": "60",
        "zip": "49716",
        "city": "Meppen\n"
    },
    {
        "street": "Neuer Markt",
        "house_number": "11",
        "zip": "49733",
        "city": "Haren\n"
    },
    {
        "street": "Trankgasse",
        "house_number": "11",
        "zip": "50667",
        "city": "K\u00f6ln\n"
    },
    {
        "street": "Neusser Str.",
        "house_number": "210",
        "zip": "50733",
        "city": "K\u00f6ln\n"
    },
    {
        "street": "Adalbertstr.",
        "house_number": "100",
        "zip": "52062",
        "city": "Aachen\n"
    },
    {
        "street": "Schumanstr.",
        "house_number": "4",
        "zip": "52146",
        "city": "W\u00fcrselen\n"
    },
    {
        "street": "Langwahn",
        "house_number": "54",
        "zip": "52249",
        "city": "Eschweiler\n"
    },
    {
        "street": "Hauptstr.",
        "house_number": "83",
        "zip": "53474",
        "city": "Bad Neuenahr-Ahrweiler\n"
    },
    {
        "street": "Rathausallee",
        "house_number": "16",
        "zip": "53757",
        "city": "Sankt Augustin\n"
    },
    {
        "street": "Breite Str.",
        "house_number": "31",
        "zip": "55124",
        "city": "Mainz\n"
    },
    {
        "street": "Bahnhofstr.",
        "house_number": "26",
        "zip": "55218",
        "city": "Ingelheim\n"
    },
    {
        "street": "Schwabenheimer Weg",
        "house_number": "5",
        "zip": "55543",
        "city": "Bad Kreuznach\n"
    },
    {
        "street": "Alzeyer Str.",
        "house_number": "81",
        "zip": "55543",
        "city": "Bad Kreuznach\n"
    },
    {
        "street": "Mannheimer Str.",
        "house_number": "128",
        "zip": "55543",
        "city": "Bad Kreuznach\n"
    },
    {
        "street": "Hohenfelder Str.",
        "house_number": "22",
        "zip": "56068",
        "city": "Koblenz\n"
    },
    {
        "street": "Altl\u00f6hrtor",
        "house_number": "17",
        "zip": "56068",
        "city": "Koblenz\n"
    },
    {
        "street": "Am Einkaufspark",
        "house_number": "1",
        "zip": "56462",
        "city": "H\u00f6hn\n"
    },
    {
        "street": "Hausener Str. ",
        "house_number": "26",
        "zip": "56727",
        "city": "Mayen\n"
    },
    {
        "street": "Sandstr.",
        "house_number": "163",
        "zip": "57072",
        "city": "Siegen\n"
    },
    {
        "street": "Hundemstr.",
        "house_number": "43",
        "zip": "57368",
        "city": "Lennestadt\n"
    },
    {
        "street": "K\u00f6lner Str.",
        "house_number": "313",
        "zip": "58256",
        "city": "Ennepetal\n"
    },
    {
        "street": "Wilhelmstr.",
        "house_number": "33",
        "zip": "58511",
        "city": "L\u00fcdenscheid\n"
    },
    {
        "street": "Theodor-Heuss-Ring ",
        "house_number": "1125",
        "zip": "58636",
        "city": "Iserlohn\n"
    },
    {
        "street": "Hauptstr.",
        "house_number": "172",
        "zip": "58675",
        "city": "Hemer\n"
    },
    {
        "street": "Richard-Matthaei-Platz",
        "house_number": "1",
        "zip": "59065",
        "city": "Hamm\n"
    },
    {
        "street": "Bahnhofstra\u00dfe",
        "house_number": "12",
        "zip": "59929",
        "city": "Brilon\n"
    },
    {
        "street": "Bahnhofstra\u00dfe ",
        "house_number": "18",
        "zip": "59929",
        "city": "Brilon\n"
    },
    {
        "street": "Reuterweg ",
        "house_number": "6870",
        "zip": "60323",
        "city": "Frankfurt\n"
    },
    {
        "street": "Riedbergplatz",
        "house_number": "2",
        "zip": "60438",
        "city": "Frankfurt\n"
    },
    {
        "street": "Dortelweiler Platz",
        "house_number": "2",
        "zip": "61118",
        "city": "Bad Vilbel\n"
    },
    {
        "street": "Louisenstr.",
        "house_number": "77",
        "zip": "61348",
        "city": "Bad Homburg\n"
    },
    {
        "street": "Odenwaldring",
        "house_number": "70",
        "zip": "63069",
        "city": "Offenbach\n"
    },
    {
        "street": "Robert-Bosch-Str.",
        "house_number": "15",
        "zip": "63303",
        "city": "Dreieich\n"
    },
    {
        "street": "Kinzigbogen",
        "house_number": "6",
        "zip": "63452",
        "city": "Hanau\n"
    },
    {
        "street": "K\u00f6nigsberger Str.",
        "house_number": "75",
        "zip": "63512",
        "city": "Hainburg\n"
    },
    {
        "street": "Weisskirchenweg",
        "house_number": "11",
        "zip": "63571",
        "city": "Gelnhausen\n"
    },
    {
        "street": "Ludwigsplatz",
        "house_number": "1",
        "zip": "64283",
        "city": "Darmstadt\n"
    },
    {
        "street": "Hasengartenstr.",
        "house_number": "25",
        "zip": "65189",
        "city": "Wiesbaden\n"
    },
    {
        "street": "\u00c4ppelallee",
        "house_number": "69",
        "zip": "65203",
        "city": "Wiesbaden\n"
    },
    {
        "street": "Pommernstr.",
        "house_number": "47",
        "zip": "65520",
        "city": "Bad Camberg\n"
    },
    {
        "street": "Westerwaldstr.",
        "house_number": "111",
        "zip": "65549",
        "city": "Limburg\n"
    },
    {
        "street": "Bahnhofstr.",
        "house_number": "37",
        "zip": "66111",
        "city": "Saarbr\u00fccken\n"
    },
    {
        "street": "Quierschieder Weg  ",
        "house_number": "3",
        "zip": "66280",
        "city": "Sulzbach\n"
    },
    {
        "street": "Neunmorgenstr",
        "house_number": "",
        "zip": "66424",
        "city": "Homburg\n"
    },
    {
        "street": "Wormser Str.",
        "house_number": "109",
        "zip": "67227",
        "city": "Frankenthal\n"
    },
    {
        "street": "Merkurstr.",
        "house_number": "57",
        "zip": "67663",
        "city": "Kaiserslautern\n"
    },
    {
        "street": "Hertzstr.",
        "house_number": "1",
        "zip": "69126",
        "city": "Heidelberg\n"
    },
    {
        "street": "Berliner Platz",
        "house_number": "1",
        "zip": "69469",
        "city": "Weinheim\n"
    },
    {
        "street": "M\u00f6nsheimer Str.",
        "house_number": "50",
        "zip": "71296",
        "city": "Heimsheim\n"
    },
    {
        "street": "Ruhrstr.",
        "house_number": "5",
        "zip": "71332",
        "city": "Waiblingen\n"
    },
    {
        "street": "Emil-Adolff-Str.",
        "house_number": "21",
        "zip": "72760",
        "city": "Reutlingen\n"
    },
    {
        "street": "Stuttgarter Str.",
        "house_number": "1",
        "zip": "73054",
        "city": "Eislingen\n"
    },
    {
        "street": "Dr.-Adolf-Schneider-Str.",
        "house_number": "20",
        "zip": "73479",
        "city": "Ellwangen\n"
    },
    {
        "street": "Berliner Str.",
        "house_number": "2",
        "zip": "73728",
        "city": "Esslingen\n"
    },
    {
        "street": "Kronenstr.",
        "house_number": "43",
        "zip": "73734",
        "city": "Esslingen\n"
    },
    {
        "street": "Olgastr.",
        "house_number": "57",
        "zip": "74072",
        "city": "Heilbronn\n"
    },
    {
        "street": "Am Wollhaus",
        "house_number": "4",
        "zip": "74072",
        "city": "Heilbronn\n"
    },
    {
        "street": "Neckargartacher Str.",
        "house_number": "111",
        "zip": "74080",
        "city": "Heilbronn\n"
    },
    {
        "street": "R\u00f6telstr.",
        "house_number": "35",
        "zip": "74172",
        "city": "Neckarsulm\n"
    },
    {
        "street": "Weilerwiese",
        "house_number": "5",
        "zip": "74523",
        "city": "Schw\u00e4bisch Hall\n"
    },
    {
        "street": "Daimlerstr.",
        "house_number": "70",
        "zip": "74545",
        "city": "Michelfeld\n"
    },
    {
        "street": "Friedrichstr. \/AM BAHNHO",
        "house_number": "16",
        "zip": "74889",
        "city": "Sinsheim\n"
    },
    {
        "street": "Pforzheimer Str.",
        "house_number": "46",
        "zip": "75015",
        "city": "Bretten\n"
    },
    {
        "street": "Wilhelm-Becker-Str",
        "house_number": "15",
        "zip": "75179",
        "city": "Pforzheim\n"
    },
    {
        "street": "R\u00fcppurrer Str.",
        "house_number": "1",
        "zip": "76137",
        "city": "Karlsruhe\n"
    },
    {
        "street": "Wilhelm-Drapp-Str.",
        "house_number": "23",
        "zip": "76532",
        "city": "Baden-Baden\n"
    },
    {
        "street": "Damm\u00fchlstr.",
        "house_number": "11",
        "zip": "76829",
        "city": "Landau\n"
    },
    {
        "street": "Hornbachstr.",
        "house_number": "17",
        "zip": "76879",
        "city": "Bornheim\n"
    },
    {
        "street": "Georg-Fischer-Str.",
        "house_number": "15",
        "zip": "78224",
        "city": "Singen\n"
    },
    {
        "street": "Bertoldstr",
        "house_number": "8",
        "zip": "79098",
        "city": "Freiburg\n"
    },
    {
        "street": "Freiburger Str.",
        "house_number": "4",
        "zip": "79312",
        "city": "Emmendingen\n"
    },
    {
        "street": "Hauptstr.",
        "house_number": "437",
        "zip": "79576",
        "city": "Weil am Rhein\n"
    },
    {
        "street": "Hauptstr.",
        "house_number": "302",
        "zip": "79576",
        "city": "Weil am Rhein\n"
    },
    {
        "street": "Gro\u00dffeldstr.",
        "house_number": "2",
        "zip": "79618",
        "city": "Rheinfelden\n"
    },
    {
        "street": "Laufenpark",
        "house_number": "16",
        "zip": "79725",
        "city": "Laufenburg\n"
    },
    {
        "street": "Br\u00fcckenstr",
        "house_number": "7",
        "zip": "79761",
        "city": "Waldhut-Tiengen\n"
    },
    {
        "street": "Neuhauser Str.",
        "house_number": "11",
        "zip": "80331",
        "city": "M\u00fcnchen\n"
    },
    {
        "street": "Stachus Einkauszentrum",
        "house_number": "11",
        "zip": "80335",
        "city": "M\u00fcnchen\n"
    },
    {
        "street": "Bahnhofplatz",
        "house_number": "2",
        "zip": "80335",
        "city": "M\u00fcnchen\n"
    },
    {
        "street": "Riesstr.",
        "house_number": "59",
        "zip": "80993",
        "city": "M\u00fcnchen\n"
    },
    {
        "street": "Oberf\u00f6hringer Str.",
        "house_number": "2",
        "zip": "81679",
        "city": "M\u00fcnchen\n"
    },
    {
        "street": "Willy-Brandt-Platz",
        "house_number": "5",
        "zip": "81829",
        "city": "M\u00fcnchen\n"
    },
    {
        "street": "Untere Bahnhofstr.",
        "house_number": "38",
        "zip": "82110",
        "city": "Germering\n"
    },
    {
        "street": "Heimst\u00e4ttenstr.",
        "house_number": "34",
        "zip": "82256",
        "city": "F\u00fcrstenfeldbruck\n"
    },
    {
        "street": "Gebhardtstr.",
        "house_number": "1",
        "zip": "82515",
        "city": "Wolfratshausen\n"
    },
    {
        "street": "Happinger Str.  ",
        "house_number": "77",
        "zip": "83026",
        "city": "Rosenheim\n"
    },
    {
        "street": "\u00c4u\u00dfere M\u00fcnchener Str.",
        "house_number": "100",
        "zip": "83026",
        "city": "Rosenheim\n"
    },
    {
        "street": "An der Alten Spinnerei",
        "house_number": "8",
        "zip": "83059",
        "city": "Kolbermoor\n"
    },
    {
        "street": "Bahnhofstr.",
        "house_number": "5",
        "zip": "83229",
        "city": "Aschau\n"
    },
    {
        "street": "Moraltpark  ",
        "house_number": "1",
        "zip": "83646",
        "city": "Bad T\u00f6lz\n"
    },
    {
        "street": "N\u00f6rdliche Hauptstr.",
        "house_number": "14",
        "zip": "83700",
        "city": "Rottach-Egern\n"
    },
    {
        "street": "Marienplatz",
        "house_number": "16",
        "zip": "84130",
        "city": "Dingolfing\n"
    },
    {
        "street": "Braumeisterstr.",
        "house_number": "1",
        "zip": "84524",
        "city": "Neu\u00f6tting\n"
    },
    {
        "street": "Am Westpark",
        "house_number": "6",
        "zip": "85057",
        "city": "Ingolstadt\n"
    },
    {
        "street": "Hauptplatz",
        "house_number": "25",
        "zip": "85276",
        "city": "Pfaffenhofen\n"
    },
    {
        "street": "Rathausplatz",
        "house_number": "2",
        "zip": "85716",
        "city": "Unterschlei\u00dfheim\n"
    },
    {
        "street": "Willy-Brandt-Platz",
        "house_number": "1",
        "zip": "86153",
        "city": "Augsburg\n"
    },
    {
        "street": "Schlo\u00dfstr.",
        "house_number": "3",
        "zip": "86405",
        "city": "Meitingen\n"
    },
    {
        "street": "Fuggerstr.",
        "house_number": "37",
        "zip": "86830",
        "city": "Schwabm\u00fcnchen\n"
    },
    {
        "street": "August-Fischer-Platz",
        "house_number": "1",
        "zip": "87435",
        "city": "Kempten\n"
    },
    {
        "street": "Reichenstr.",
        "house_number": "12",
        "zip": "87629",
        "city": "F\u00fcssen\n"
    },
    {
        "street": "Konstanzenstr.",
        "house_number": "92",
        "zip": "90439",
        "city": "N\u00fcrnberg\n"
    },
    {
        "street": "Glogauer Str. ",
        "house_number": "3038",
        "zip": "90473",
        "city": "N\u00fcrnberg\n"
    },
    {
        "street": "Laufamholzstr. ",
        "house_number": "4042",
        "zip": "90482",
        "city": "N\u00fcrnberg\n"
    },
    {
        "street": "\u00c4u\u00dfere Bayreuther Str.",
        "house_number": "80",
        "zip": "90491",
        "city": "N\u00fcrnberg\n"
    },
    {
        "street": "N\u00fcrnberger Str.",
        "house_number": "7",
        "zip": "91052",
        "city": "Erlangen\n"
    },
    {
        "street": "N\u00fcrnberger Str.",
        "house_number": "34",
        "zip": "91522",
        "city": "Ansbach\n"
    },
    {
        "street": "Dinkelsb\u00fchler Str.",
        "house_number": "26",
        "zip": "91555",
        "city": "Feuchtwangen\n"
    },
    {
        "street": "Dr.-Seeling-Str. ",
        "house_number": "1824",
        "zip": "92637",
        "city": "Weiden\n"
    },
    {
        "street": "Bahnhofstr.",
        "house_number": "1",
        "zip": "94032",
        "city": "Passau\n"
    },
    {
        "street": "Hohenzollernring",
        "house_number": "58",
        "zip": "95444",
        "city": "Bayreuth\n"
    },
    {
        "street": "Spinnereistr.",
        "house_number": "7",
        "zip": "95445",
        "city": "Bayreuth\n"
    },
    {
        "street": "Forchheimer Str.",
        "house_number": "47",
        "zip": "96129",
        "city": "Strullendorf\n"
    },
    {
        "street": "Industriestr.",
        "house_number": "7",
        "zip": "97076",
        "city": "W\u00fcrzburg\n"
    },
    {
        "street": "V. Hessing-Str.",
        "house_number": "1",
        "zip": "97688",
        "city": "Bad Kissingen\n"
    },
    {
        "street": "Untere Marktstr.",
        "house_number": "12",
        "zip": "97688",
        "city": "Bad Kissingen\n"
    },
    {
        "street": "Steinweg",
        "house_number": "31",
        "zip": "98527",
        "city": "Suhl\n"
    },
    {
        "street": "Gothaer Str.",
        "house_number": "22",
        "zip": "99094",
        "city": "Erfurt\n"
    },
    {
        "street": "Erfurter Str.",
        "house_number": "72",
        "zip": "99095",
        "city": "Erfurt\n"
    }
]